[{"OBJECT_NAME":"TIANPING 2A","OBJECT_ID":"2022-032A","EPOCH":"2026-03-09T22:58:37.953408","MEAN_MOTION":14.9690979,"ECCENTRICITY":0.00109299,"INCLINATION":97.5994,"RA_OF_ASC_NODE":109.5163,"ARG_OF_PERICENTER":146.1091,"MEAN_ANOMALY":214.0831,"EPHEMERIS_TYPE":0,"CLASSIFICATION_TYPE":"U","NORAD_CAT_ID":52153,"ELEMENT_SET_NO":999,"REV_AT_EPOCH":21499,"BSTAR":3.4221979e-5,"MEAN_MOTION_DOT":3.37e-6,"MEAN_MOTION_DDOT":0},{"OBJECT_NAME":"STARLINK-5884","OBJECT_ID":"2023-037AV","EPOCH":"2026-03-09T21:40:59.689632","MEAN_MOTION":14.98332178,"ECCENTRICITY":0.00026805,"INCLINATION":69.9978,"RA_OF_ASC_NODE":263.9786,"ARG_OF_PERICENTER":272.5548,"MEAN_ANOMALY":87.5304,"EPHEMERIS_TYPE":0,"CLASSIFICATION_TYPE":"U","NORAD_CAT_ID":55957,"ELEMENT_SET_NO":999,"REV_AT_EPOCH":16450,"BSTAR":0.00011589362,"MEAN_MOTION_DOT":1.29e-5,"MEAN_MOTION_DDOT":0}]
